STARLINK-36229          
1 68114U 26044P   26091.16671296 -.01924040  00000+0 -23966-1 0  9990
2 68114  97.2851  52.4039 0001817 103.6636  49.1677 15.63071052  5019
STARLINK-36392          
1 68115U 26044Q   26091.16671296 -.01912914  00000+0 -26290-1 0  9991
2 68115  97.2848  52.3956 0001811  94.1399  37.6827 15.60525587  5010
STARLINK-36805          
1 68116U 26044R   26091.16671296 -.01926658  00000+0 -25137-1 0  9991
2 68116  97.2849  52.4033 0001690  98.3169  51.7076 15.61893499  5019
STARLINK-36844          
1 68117U 26044S   26091.16671296 -.01930262  00000+0 -23223-1 0  9992
2 68117  97.2853  52.4155 0001854  97.9989  81.6611 15.63961095  4967
STARLINK-36789          
1 68118U 26044T   26091.16671296 -.01912891  00000+0 -22246-1 0  9995
2 68118  97.2853  52.4195 0001795 101.9941  87.3491 15.64785398  4960
STARLINK-36850          
1 68119U 26044U   26091.16671296 -.01932325  00000+0 -22481-1 0  9991
2 68119  97.2853  52.4205 0001764 101.6335  89.8283 15.64809497  4966
STARLINK-36868          
1 68120U 26044V   26091.16671296 -.01932010  00000+0 -21989-1 0  9996
2 68120  97.2855  52.4262 0001804 103.6580 100.5268 15.65357182  4966
STARLINK-36855          
1 68121U 26044W   26091.16671296 -.01927676  00000+0 -23238-1 0  9998
2 68121  97.2855  52.4224 0001686 103.3344  91.8335 15.63908392  4968
STARLINK-36366          
1 68122U 26044X   26091.16671296 -.01924328  00000+0 -22913-1 0  9999
2 68122  97.2856  52.4244 0001761 108.8089  91.2625 15.64213551  5012
STARLINK-36922          
1 68123U 26044Y   26091.16671296 -.01928115  00000+0 -22503-1 0  9993
2 68123  97.2856  52.4326 0001844 105.8831 112.8244 15.64721987  5012
STARLINK-36938          
1 68124U 26044Z   26091.16226642  .00470926  00000+0  29691-2 0  9990
2 68124  97.2853  52.5005 0005065 109.7730 250.4082 15.75327797  5028
STARLINK-36839          
1 68125U 26044AA  26091.16671296 -.01930771  00000+0 -22501-1 0  9994
2 68125  97.2854  52.4302 0001728 102.0012 111.0650 15.64764777  4966
