CCSDS_OMM_VERS = 2.0
CREATION_DATE  = 
ORIGINATOR     = 

OBJECT_NAME    = STARLINK-36229
OBJECT_ID      = 2026-044P
CENTER_NAME    = EARTH
REF_FRAME      = TEME
TIME_SYSTEM    = UTC
MEAN_ELEMENT_THEORY = SGP/SGP4

EPOCH          = 2026-04-01T04:00:03.999744
MEAN_MOTION    = 15.63071052
ECCENTRICITY   = .0001817
INCLINATION    = 97.2851
RA_OF_ASC_NODE = 52.4039
ARG_OF_PERICENTER = 103.6636
MEAN_ANOMALY   = 49.1677

EPHEMERIS_TYPE = 0
CLASSIFICATION_TYPE = U
NORAD_CAT_ID   = 68114
ELEMENT_SET_NO = 999
REV_AT_EPOCH   = 501
BSTAR          = -.23966E-1
MEAN_MOTION_DOT = -.192404E-1
MEAN_MOTION_DDOT = 0

CCSDS_OMM_VERS = 2.0
CREATION_DATE  = 
ORIGINATOR     = 

OBJECT_NAME    = STARLINK-36392
OBJECT_ID      = 2026-044Q
CENTER_NAME    = EARTH
REF_FRAME      = TEME
TIME_SYSTEM    = UTC
MEAN_ELEMENT_THEORY = SGP/SGP4

EPOCH          = 2026-04-01T04:00:03.999744
MEAN_MOTION    = 15.60525587
ECCENTRICITY   = .0001811
INCLINATION    = 97.2848
RA_OF_ASC_NODE = 52.3956
ARG_OF_PERICENTER = 94.1399
MEAN_ANOMALY   = 37.6827

EPHEMERIS_TYPE = 0
CLASSIFICATION_TYPE = U
NORAD_CAT_ID   = 68115
ELEMENT_SET_NO = 999
REV_AT_EPOCH   = 501
BSTAR          = -.2629E-1
MEAN_MOTION_DOT = -.1912914E-1
MEAN_MOTION_DDOT = 0

CCSDS_OMM_VERS = 2.0
CREATION_DATE  = 
ORIGINATOR     = 

OBJECT_NAME    = STARLINK-36805
OBJECT_ID      = 2026-044R
CENTER_NAME    = EARTH
REF_FRAME      = TEME
TIME_SYSTEM    = UTC
MEAN_ELEMENT_THEORY = SGP/SGP4

EPOCH          = 2026-04-01T04:00:03.999744
MEAN_MOTION    = 15.61893499
ECCENTRICITY   = .000169
INCLINATION    = 97.2849
RA_OF_ASC_NODE = 52.4033
ARG_OF_PERICENTER = 98.3169
MEAN_ANOMALY   = 51.7076

EPHEMERIS_TYPE = 0
CLASSIFICATION_TYPE = U
NORAD_CAT_ID   = 68116
ELEMENT_SET_NO = 999
REV_AT_EPOCH   = 501
BSTAR          = -.25137E-1
MEAN_MOTION_DOT = -.1926658E-1
MEAN_MOTION_DDOT = 0

CCSDS_OMM_VERS = 2.0
CREATION_DATE  = 
ORIGINATOR     = 

OBJECT_NAME    = STARLINK-36844
OBJECT_ID      = 2026-044S
CENTER_NAME    = EARTH
REF_FRAME      = TEME
TIME_SYSTEM    = UTC
MEAN_ELEMENT_THEORY = SGP/SGP4

EPOCH          = 2026-04-01T04:00:03.999744
MEAN_MOTION    = 15.63961095
ECCENTRICITY   = .0001854
INCLINATION    = 97.2853
RA_OF_ASC_NODE = 52.4155
ARG_OF_PERICENTER = 97.9989
MEAN_ANOMALY   = 81.6611

EPHEMERIS_TYPE = 0
CLASSIFICATION_TYPE = U
NORAD_CAT_ID   = 68117
ELEMENT_SET_NO = 999
REV_AT_EPOCH   = 496
BSTAR          = -.23223E-1
MEAN_MOTION_DOT = -.1930262E-1
MEAN_MOTION_DDOT = 0

CCSDS_OMM_VERS = 2.0
CREATION_DATE  = 
ORIGINATOR     = 

OBJECT_NAME    = STARLINK-36789
OBJECT_ID      = 2026-044T
CENTER_NAME    = EARTH
REF_FRAME      = TEME
TIME_SYSTEM    = UTC
MEAN_ELEMENT_THEORY = SGP/SGP4

EPOCH          = 2026-04-01T04:00:03.999744
MEAN_MOTION    = 15.64785398
ECCENTRICITY   = .0001795
INCLINATION    = 97.2853
RA_OF_ASC_NODE = 52.4195
ARG_OF_PERICENTER = 101.9941
MEAN_ANOMALY   = 87.3491

EPHEMERIS_TYPE = 0
CLASSIFICATION_TYPE = U
NORAD_CAT_ID   = 68118
ELEMENT_SET_NO = 999
REV_AT_EPOCH   = 496
BSTAR          = -.22246E-1
MEAN_MOTION_DOT = -.1912891E-1
MEAN_MOTION_DDOT = 0

CCSDS_OMM_VERS = 2.0
CREATION_DATE  = 
ORIGINATOR     = 

OBJECT_NAME    = STARLINK-36850
OBJECT_ID      = 2026-044U
CENTER_NAME    = EARTH
REF_FRAME      = TEME
TIME_SYSTEM    = UTC
MEAN_ELEMENT_THEORY = SGP/SGP4

EPOCH          = 2026-04-01T04:00:03.999744
MEAN_MOTION    = 15.64809497
ECCENTRICITY   = .0001764
INCLINATION    = 97.2853
RA_OF_ASC_NODE = 52.4205
ARG_OF_PERICENTER = 101.6335
MEAN_ANOMALY   = 89.8283

EPHEMERIS_TYPE = 0
CLASSIFICATION_TYPE = U
NORAD_CAT_ID   = 68119
ELEMENT_SET_NO = 999
REV_AT_EPOCH   = 496
BSTAR          = -.22481E-1
MEAN_MOTION_DOT = -.1932325E-1
MEAN_MOTION_DDOT = 0

CCSDS_OMM_VERS = 2.0
CREATION_DATE  = 
ORIGINATOR     = 

OBJECT_NAME    = STARLINK-36868
OBJECT_ID      = 2026-044V
CENTER_NAME    = EARTH
REF_FRAME      = TEME
TIME_SYSTEM    = UTC
MEAN_ELEMENT_THEORY = SGP/SGP4

EPOCH          = 2026-04-01T04:00:03.999744
MEAN_MOTION    = 15.65357182
ECCENTRICITY   = .0001804
INCLINATION    = 97.2855
RA_OF_ASC_NODE = 52.4262
ARG_OF_PERICENTER = 103.6580
MEAN_ANOMALY   = 100.5268

EPHEMERIS_TYPE = 0
CLASSIFICATION_TYPE = U
NORAD_CAT_ID   = 68120
ELEMENT_SET_NO = 999
REV_AT_EPOCH   = 496
BSTAR          = -.21989E-1
MEAN_MOTION_DOT = -.193201E-1
MEAN_MOTION_DDOT = 0

CCSDS_OMM_VERS = 2.0
CREATION_DATE  = 
ORIGINATOR     = 

OBJECT_NAME    = STARLINK-36855
OBJECT_ID      = 2026-044W
CENTER_NAME    = EARTH
REF_FRAME      = TEME
TIME_SYSTEM    = UTC
MEAN_ELEMENT_THEORY = SGP/SGP4

EPOCH          = 2026-04-01T04:00:03.999744
MEAN_MOTION    = 15.63908392
ECCENTRICITY   = .0001686
INCLINATION    = 97.2855
RA_OF_ASC_NODE = 52.4224
ARG_OF_PERICENTER = 103.3344
MEAN_ANOMALY   = 91.8335

EPHEMERIS_TYPE = 0
CLASSIFICATION_TYPE = U
NORAD_CAT_ID   = 68121
ELEMENT_SET_NO = 999
REV_AT_EPOCH   = 496
BSTAR          = -.23238E-1
MEAN_MOTION_DOT = -.1927676E-1
MEAN_MOTION_DDOT = 0

CCSDS_OMM_VERS = 2.0
CREATION_DATE  = 
ORIGINATOR     = 

OBJECT_NAME    = STARLINK-36366
OBJECT_ID      = 2026-044X
CENTER_NAME    = EARTH
REF_FRAME      = TEME
TIME_SYSTEM    = UTC
MEAN_ELEMENT_THEORY = SGP/SGP4

EPOCH          = 2026-04-01T04:00:03.999744
MEAN_MOTION    = 15.64213551
ECCENTRICITY   = .0001761
INCLINATION    = 97.2856
RA_OF_ASC_NODE = 52.4244
ARG_OF_PERICENTER = 108.8089
MEAN_ANOMALY   = 91.2625

EPHEMERIS_TYPE = 0
CLASSIFICATION_TYPE = U
NORAD_CAT_ID   = 68122
ELEMENT_SET_NO = 999
REV_AT_EPOCH   = 501
BSTAR          = -.22913E-1
MEAN_MOTION_DOT = -.1924328E-1
MEAN_MOTION_DDOT = 0

CCSDS_OMM_VERS = 2.0
CREATION_DATE  = 
ORIGINATOR     = 

OBJECT_NAME    = STARLINK-36922
OBJECT_ID      = 2026-044Y
CENTER_NAME    = EARTH
REF_FRAME      = TEME
TIME_SYSTEM    = UTC
MEAN_ELEMENT_THEORY = SGP/SGP4

EPOCH          = 2026-04-01T04:00:03.999744
MEAN_MOTION    = 15.64721987
ECCENTRICITY   = .0001844
INCLINATION    = 97.2856
RA_OF_ASC_NODE = 52.4326
ARG_OF_PERICENTER = 105.8831
MEAN_ANOMALY   = 112.8244

EPHEMERIS_TYPE = 0
CLASSIFICATION_TYPE = U
NORAD_CAT_ID   = 68123
ELEMENT_SET_NO = 999
REV_AT_EPOCH   = 501
BSTAR          = -.22503E-1
MEAN_MOTION_DOT = -.1928115E-1
MEAN_MOTION_DDOT = 0

CCSDS_OMM_VERS = 2.0
CREATION_DATE  = 
ORIGINATOR     = 

OBJECT_NAME    = STARLINK-36938
OBJECT_ID      = 2026-044Z
CENTER_NAME    = EARTH
REF_FRAME      = TEME
TIME_SYSTEM    = UTC
MEAN_ELEMENT_THEORY = SGP/SGP4

EPOCH          = 2026-04-01T03:53:39.818688
MEAN_MOTION    = 15.75327797
ECCENTRICITY   = .0005065
INCLINATION    = 97.2853
RA_OF_ASC_NODE = 52.5005
ARG_OF_PERICENTER = 109.7730
MEAN_ANOMALY   = 250.4082

EPHEMERIS_TYPE = 0
CLASSIFICATION_TYPE = U
NORAD_CAT_ID   = 68124
ELEMENT_SET_NO = 999
REV_AT_EPOCH   = 502
BSTAR          = .29691E-2
MEAN_MOTION_DOT = .470926E-2
MEAN_MOTION_DDOT = 0

CCSDS_OMM_VERS = 2.0
CREATION_DATE  = 
ORIGINATOR     = 

OBJECT_NAME    = STARLINK-36839
OBJECT_ID      = 2026-044AA
CENTER_NAME    = EARTH
REF_FRAME      = TEME
TIME_SYSTEM    = UTC
MEAN_ELEMENT_THEORY = SGP/SGP4

EPOCH          = 2026-04-01T04:00:03.999744
MEAN_MOTION    = 15.64764777
ECCENTRICITY   = .0001728
INCLINATION    = 97.2854
RA_OF_ASC_NODE = 52.4302
ARG_OF_PERICENTER = 102.0012
MEAN_ANOMALY   = 111.0650

EPHEMERIS_TYPE = 0
CLASSIFICATION_TYPE = U
NORAD_CAT_ID   = 68125
ELEMENT_SET_NO = 999
REV_AT_EPOCH   = 496
BSTAR          = -.22501E-1
MEAN_MOTION_DOT = -.1930771E-1
MEAN_MOTION_DDOT = 0

